{"type": "FeatureCollection", "features": [ {"type": "Feature", "properties": {"norad_id": 31820, "name": "FENGYUN 1C DEB", "group": "fengyun-1c-debris", "lat": -5.065143206658196, "lon": -16.298507942812346, "alt_km": 696.2350529016894, "timestamp": "2025-12-18T17:50:15.241061+00:00", "meta": {"OBJECT_NAME": "FENGYUN 1C DEB", "OBJECT_ID": "1999-025CHJ", "EPOCH": "2025-12-15T10:09:27.904896", "MEAN_MOTION": 14.92265653, "ECCENTRICITY": 0.01498031, "INCLINATION": 98.9605, "RA_OF_ASC_NODE": 160.7284, "ARG_OF_PERICENTER": 3.3331, "MEAN_ANOMALY": 356.8846, "EPHEMERIS_TYPE": 0, "CLASSIFICATION_TYPE": "U", "NORAD_CAT_ID": 31820, "ELEMENT_SET_NO": 999, "REV_AT_EPOCH": 98296, "BSTAR": 0.0006023267, "MEAN_MOTION_DOT": 7.564e-05, "MEAN_MOTION_DDOT": 0}, "tle": {"line1": "1 31820U 99025CHJ 25349.42323964  .00007564  00000+0  60233-3 0  9993", "line2": "2 31820  98.9605 160.7284 0149803   3.3331 356.8846 14.92265653982966"}}, "geometry": {"type": "Point", "coordinates": [-16.298507942812346, -5.065143206658196]}}, {"type": "Feature", "properties": {"norad_id": 31821, "name": "FENGYUN 1C DEB", "group": "fengyun-1c-debris", "lat": -9.866117191694437, "lon": 56.01064684530421, "alt_km": 907.4886664615406, "timestamp": "2025-12-18T17:50:15.241071+00:00", "meta": {"OBJECT_NAME": "FENGYUN 1C DEB", "OBJECT_ID": "1999-025CHK", "EPOCH": "2025-12-16T10:00:25.436448", "MEAN_MOTION": 14.42098533, "ECCENTRICITY": 0.02194946, "INCLINATION": 98.1571, "RA_OF_ASC_NODE": 235.2143, "ARG_OF_PERICENTER": 3.5044, "MEAN_ANOMALY": 356.7623, "EPHEMERIS_TYPE": 0, "CLASSIFICATION_TYPE": "U", "NORAD_CAT_ID": 31821, "ELEMENT_SET_NO": 999, "REV_AT_EPOCH": 93714, "BSTAR": 0.0032241537, "MEAN_MOTION_DOT": 0.00014134, "MEAN_MOTION_DDOT": 0}, "tle": {"line1": "1 31821U 99025CHK 25350.41696107  .00014134  00000+0  32242-2 0  9996", "line2": "2 31821  98.1571 235.2143 0219494   3.5044 356.7623 14.42098533937148"}}, "geometry": {"type": "Point", "coordinates": [56.01064684530421, -9.866117191694437]}}, {"type": "Feature", "properties": {"norad_id": 31823, "name": "FENGYUN 1C DEB", "group": "fengyun-1c-debris", "lat": 30.85092969725411, "lon": -94.35328313286371, "alt_km": 657.0032219830218, "timestamp": "2025-12-18T17:50:15.241081+00:00", "meta": {"OBJECT_NAME": "FENGYUN 1C DEB", "OBJECT_ID": "1999-025CHM", "EPOCH": "2025-12-17T16:35:06.705312", "MEAN_MOTION": 14.6577242, "ECCENTRICITY": 0.00373, "INCLINATION": 99.5108, "RA_OF_ASC_NODE": 78.6829, "ARG_OF_PERICENTER": 204.8858, "MEAN_ANOMALY": 155.0543, "EPHEMERIS_TYPE": 0, "CLASSIFICATION_TYPE": "U", "NORAD_CAT_ID": 31823, "ELEMENT_SET_NO": 999, "REV_AT_EPOCH": 96790, "BSTAR": 0.0010698503, "MEAN_MOTION_DOT": 5.832e-05, "MEAN_MOTION_DDOT": 0}, "tle": {"line1": "1 31823U 99025CHM 25351.69104983  .00005832  00000+0  10699-2 0  9992", "line2": "2 31823  99.5108  78.6829 0037300 204.8858 155.0543 14.65772420967901"}}, "geometry": {"type": "Point", "coordinates": [-94.35328313286371, 30.85092969725411]}}, {"type": "Feature", "properties": {"norad_id": 31825, "name": "FENGYUN 1C DEB", "group": "fengyun-1c-debris", "lat": -11.48290042913416, "lon": -6.052804227143005, "alt_km": 718.1500793826544, "timestamp": "2025-12-18T17:50:15.241091+00:00", "meta": {"OBJECT_NAME": "FENGYUN 1C DEB", "OBJECT_ID": "1999-025CHP", "EPOCH": "2025-12-18T06:04:00.953184", "MEAN_MOTION": 14.21666328, "ECCENTRICITY": 0.01653023, "INCLINATION": 98.5901, "RA_OF_ASC_NODE": 351.71, "ARG_OF_PERICENTER": 322.3044, "MEAN_ANOMALY": 36.6642, "EPHEMERIS_TYPE": 0, "CLASSIFICATION_TYPE": "U", "NORAD_CAT_ID": 31825, "ELEMENT_SET_NO": 999, "REV_AT_EPOCH": 95700, "BSTAR": 0.00057226275, "MEAN_MOTION_DOT": 1.398e-05, "MEAN_MOTION_DDOT": 0}, "tle": {"line1": "1 31825U 99025CHP 25352.25278881  .00001398  00000+0  57226-3 0  9997", "line2": "2 31825  98.5901 351.7100 0165302 322.3044  36.6642 14.21666328957002"}}, "geometry": {"type": "Point", "coordinates": [-6.052804227143005, -11.48290042913416]}}, {"type": "Feature", "properties": {"norad_id": 31826, "name": "FENGYUN 1C DEB", "group": "fengyun-1c-debris", "lat": 19.30083888804103, "lon": 166.76056849523107, "alt_km": 740.1640873206707, "timestamp": "2025-12-18T17:50:15.241101+00:00", "meta": {"OBJECT_NAME": "FENGYUN 1C DEB", "OBJECT_ID": "1999-025CHQ", "EPOCH": "2025-12-17T22:36:46.749600", "MEAN_MOTION": 14.19282996, "ECCENTRICITY": 0.01241846, "INCLINATION": 98.626, "RA_OF_ASC_NODE": 342.9332, "ARG_OF_PERICENTER": 174.2633, "MEAN_ANOMALY": 215.9226, "EPHEMERIS_TYPE": 0, "CLASSIFICATION_TYPE": "U", "NORAD_CAT_ID": 31826, "ELEMENT_SET_NO": 999, "REV_AT_EPOCH": 95888, "BSTAR": 0.00028924017, "MEAN_MOTION_DOT": 6.13e-06, "MEAN_MOTION_DDOT": 0}, "tle": {"line1": "1 31826U 99025CHQ 25351.94220775  .00000613  00000+0  28924-3 0  9994", "line2": "2 31826  98.6260 342.9332 0124184 174.2633 215.9226 14.19282996958881"}}, "geometry": {"type": "Point", "coordinates": [166.76056849523107, 19.30083888804103]}}, {"type": "Feature", "properties": {"norad_id": 31829, "name": "FENGYUN 1C DEB", "group": "fengyun-1c-debris", "lat": 46.923349895761845, "lon": 152.68735318621387, "alt_km": 949.2987225134948, "timestamp": "2025-12-18T17:50:15.241111+00:00", "meta": {"OBJECT_NAME": "FENGYUN 1C DEB", "OBJECT_ID": "1999-025CHT", "EPOCH": "2025-12-17T17:28:41.251008", "MEAN_MOTION": 13.88689135, "ECCENTRICITY": 0.01692756, "INCLINATION": 98.8357, "RA_OF_ASC_NODE": 161.3008, "ARG_OF_PERICENTER": 150.8846, "MEAN_ANOMALY": 227.3761, "EPHEMERIS_TYPE": 0, "CLASSIFICATION_TYPE": "U", "NORAD_CAT_ID": 31829, "ELEMENT_SET_NO": 999, "REV_AT_EPOCH": 94217, "BSTAR": 0.0003456228, "MEAN_MOTION_DOT": 4.27e-06, "MEAN_MOTION_DDOT": 0}, "tle": {"line1": "1 31829U 99025CHT 25351.72825522  .00000427  00000+0  34562-3 0  9992", "line2": "2 31829  98.8357 161.3008 0169275 150.8846 227.3761 13.88689135942179"}}, "geometry": {"type": "Point", "coordinates": [152.68735318621387, 46.923349895761845]}}, {"type": "Feature", "properties": {"norad_id": 31830, "name": "FENGYUN 1C DEB", "group": "fengyun-1c-debris", "lat": -54.030664693654614, "lon": 111.13185693985109, "alt_km": 825.2418817066109, "timestamp": "2025-12-18T17:50:15.241121+00:00", "meta": {"OBJECT_NAME": "FENGYUN 1C DEB", "OBJECT_ID": "1999-025CHU", "EPOCH": "2025-12-18T06:05:02.359392", "MEAN_MOTION": 13.83443907, "ECCENTRICITY": 0.01831599, "INCLINATION": 99.1642, "RA_OF_ASC_NODE": 97.8028, "ARG_OF_PERICENTER": 299.6178, "MEAN_ANOMALY": 87.3932, "EPHEMERIS_TYPE": 0, "CLASSIFICATION_TYPE": "U", "NORAD_CAT_ID": 31830, "ELEMENT_SET_NO": 999, "REV_AT_EPOCH": 92816, "BSTAR": 0.0016630284, "MEAN_MOTION_DOT": 2.039e-05, "MEAN_MOTION_DDOT": 0}, "tle": {"line1": "1 31830U 99025CHU 25352.25349953  .00002039  00000+0  16630-2 0  9998", "line2": "2 31830  99.1642  97.8028 0183159 299.6178  87.3932 13.83443907928161"}}, "geometry": {"type": "Point", "coordinates": [111.13185693985109, -54.030664693654614]}}, {"type": "Feature", "properties": {"norad_id": 31834, "name": "FENGYUN 1C DEB", "group": "fengyun-1c-debris", "lat": 20.603185337061515, "lon": 35.63896381097093, "alt_km": 898.0906006866644, "timestamp": "2025-12-18T17:50:15.241131+00:00", "meta": {"OBJECT_NAME": "FENGYUN 1C DEB", "OBJECT_ID": "1999-025CHY", "EPOCH": "2025-12-17T20:33:43.085088", "MEAN_MOTION": 14.03156821, "ECCENTRICITY": 0.0162661, "INCLINATION": 98.3673, "RA_OF_ASC_NODE": 211.6515, "ARG_OF_PERICENTER": 63.1961, "MEAN_ANOMALY": 298.574, "EPHEMERIS_TYPE": 0, "CLASSIFICATION_TYPE": "U", "NORAD_CAT_ID": 31834, "ELEMENT_SET_NO": 999, "REV_AT_EPOCH": 63782, "BSTAR": 0.00021867643, "MEAN_MOTION_DOT": 3.45e-06, "MEAN_MOTION_DDOT": 0}, "tle": {"line1": "1 31834U 99025CHY 25351.85674867  .00000345  00000+0  21868-3 0  9990", "line2": "2 31834  98.3673 211.6515 0162661  63.1961 298.5740 14.03156821637828"}}, "geometry": {"type": "Point", "coordinates": [35.63896381097093, 20.603185337061515]}}, {"type": "Feature", "properties": {"norad_id": 31837, "name": "FENGYUN 1C DEB", "group": "fengyun-1c-debris", "lat": -29.138558323954033, "lon": 72.91213690527499, "alt_km": 569.9314370405773, "timestamp": "2025-12-18T17:50:15.241141+00:00", "meta": {"OBJECT_NAME": "FENGYUN 1C DEB", "OBJECT_ID": "1999-025CJB", "EPOCH": "2025-12-17T11:11:13.196544", "MEAN_MOTION": 14.8231702, "ECCENTRICITY": 0.00932487, "INCLINATION": 98.1004, "RA_OF_ASC_NODE": 67.0654, "ARG_OF_PERICENTER": 2.43, "MEAN_ANOMALY": 357.7347, "EPHEMERIS_TYPE": 0, "CLASSIFICATION_TYPE": "U", "NORAD_CAT_ID": 31837, "ELEMENT_SET_NO": 999, "REV_AT_EPOCH": 98429, "BSTAR": 0.00072690461, "MEAN_MOTION_DOT": 6.211e-05, "MEAN_MOTION_DDOT": 0}, "tle": {"line1": "1 31837U 99025CJB 25351.46612496  .00006211  00000+0  72690-3 0  9997", "line2": "2 31837  98.1004  67.0654 0093248   2.4300 357.7347 14.82317020984295"}}, "geometry": {"type": "Point", "coordinates": [72.91213690527499, -29.138558323954033]}}, {"type": "Feature", "properties": {"norad_id": 31838, "name": "FENGYUN 1C DEB", "group": "fengyun-1c-debris", "lat": -24.13966635729021, "lon": 47.30039945715256, "alt_km": 832.9075249865682, "timestamp": "2025-12-18T17:50:15.241151+00:00", "meta": {"OBJECT_NAME": "FENGYUN 1C DEB", "OBJECT_ID": "1999-025CJC", "EPOCH": "2025-12-17T08:26:31.079040", "MEAN_MOTION": 14.21147066, "ECCENTRICITY": 0.00383301, "INCLINATION": 98.7181, "RA_OF_ASC_NODE": 41.9841, "ARG_OF_PERICENTER": 82.4051, "MEAN_ANOMALY": 338.6922, "EPHEMERIS_TYPE": 0, "CLASSIFICATION_TYPE": "U", "NORAD_CAT_ID": 31838, "ELEMENT_SET_NO": 999, "REV_AT_EPOCH": 64642, "BSTAR": 0.00054487511, "MEAN_MOTION_DOT": 1.15e-05, "MEAN_MOTION_DDOT": 0}, "tle": {"line1": "1 31838U 99025CJC 25351.35174860  .00001150  00000+0  54488-3 0  9996", "line2": "2 31838  98.7181  41.9841 0038330  82.4051 338.6922 14.21147066646420"}}, "geometry": {"type": "Point", "coordinates": [47.30039945715256, -24.13966635729021]}}]}